[{"OBJECT_NAME":"STARLINK-34885","OBJECT_ID":"2025-189F","EPOCH":"2026-03-09T16:08:44.062080","MEAN_MOTION":15.3019596,"ECCENTRICITY":9.665e-5,"INCLINATION":53.1575,"RA_OF_ASC_NODE":206.8608,"ARG_OF_PERICENTER":93.0634,"MEAN_ANOMALY":267.0477,"EPHEMERIS_TYPE":0,"CLASSIFICATION_TYPE":"U","NORAD_CAT_ID":65328,"ELEMENT_SET_NO":999,"REV_AT_EPOCH":3104,"BSTAR":0.00080553649,"MEAN_MOTION_DOT":0.00023571,"MEAN_MOTION_DDOT":0},{"OBJECT_NAME":"KUIPER-00222","OBJECT_ID":"2026-030U","EPOCH":"2026-03-09T16:13:57.726048","MEAN_MOTION":15.32445377,"ECCENTRICITY":0.00128002,"INCLINATION":51.8817,"RA_OF_ASC_NODE":219.7147,"ARG_OF_PERICENTER":40.1845,"MEAN_ANOMALY":320.0084,"EPHEMERIS_TYPE":0,"CLASSIFICATION_TYPE":"U","NORAD_CAT_ID":67782,"ELEMENT_SET_NO":999,"REV_AT_EPOCH":508,"BSTAR":0.0017317201,"MEAN_MOTION_DOT":0.00055223,"MEAN_MOTION_DDOT":0}]
