STARLINK-34885          
1 65328U 25189F   26068.67273220  .00023571  00000+0  80554-3 0  9992
2 65328  53.1575 206.8608 0000966  93.0634 267.0477 15.30195960 31048
KUIPER-00222            
1 67782U 26030U   26068.67636257  .00055223  00000+0  17317-2 0  9992
2 67782  51.8817 219.7147 0012800  40.1845 320.0084 15.32445377  5087
